STARLINK-3990           
1 52626U 22052AE  26068.87017392 -.00000914  00000+0 -39337-4 0  9995
2 52626  53.2165 268.3106 0001250  80.5521 279.5612 15.08844583211013
2023-069B               
1 56732U 23069B   26068.54706144  .00006772  00000+0  42420-3 0  9992
2 56732  41.0081 274.4606 0011652 279.7432  80.2064 15.09579619155167
